GOES 1 (SMS-C) [-]      
1 08366U 75100A   21348.60980483 -.00000072  00000+0  00000+0 0  9990
2 08366   8.7212 298.1011 0002561 309.1354 308.4882  1.00316996168560
GOES 2 [-]              
1 10061U 77048A   21348.84234191 -.00000137  00000+0  00000+0 0  9994
2 10061  10.2636 309.0883 0013299  13.4780 348.8845  0.99395582107161
GOES 3 [-]              
1 10953U 78062A   21349.17807726 -.00000199  00000+0  00000+0 0  9996
2 10953  10.5703 313.4322 0000720  81.8306 281.1289  0.99365924112258
GOES 4 [-]              
1 11964U 80074A   21348.77858531 -.00000255  00000+0  00000+0 0  9993
2 11964  11.5114 317.2388 0032638  64.9616 306.5389  0.99232430111113
GOES 5 [-]              
1 12472U 81049A   21348.61361365  .00000026  00000+0  00000+0 0  9993
2 12472  12.2695 328.4039 0000829 305.5638 263.4404  1.00326290106341
GOES 6 [-]              
1 14050U 83041A   21348.61148977 -.00000040  00000+0  00000+0 0  9990
2 14050  12.7868 333.6404 0002122 133.8988  79.8222  1.00323059199512
GOES 7 [-]              
1 17561U 87022A   21348.88446837 -.00000350  00000+0  00000+0 0  9992
2 17561  14.3944 350.0944 0005257  37.6099 149.9334  0.99905858110520
GOES 8 [-]              
1 23051U 94022A   21348.32183215 -.00000108  00000+0  00000+0 0  9999
2 23051  13.0186  25.5185 0004968 355.4442  11.6056  0.98906530107852
GOES 9 [-]              
1 23581U 95025A   21348.38864138 -.00000237  00000+0  00000+0 0  9990
2 23581  12.5090  25.7493 0003986  98.1401 268.1435  0.98802574 96509
GOES 10 [-]             
1 24786U 97019A   21348.85429081 -.00000236  00000+0  00000+0 0  9998
2 24786  11.2125  31.7943 0026836 199.7508 143.4117  0.99127236 89751
GOES 11 [-]             
1 26352U 00022A   21348.36294001 -.00000007  00000+0  00000+0 0  9991
2 26352   8.2938  60.7766 0002336 212.2697 206.7464  0.99040277 36179
GOES 12 [-]             
1 26871U 01031A   21348.89146692 -.00000190  00000+0  00000+0 0  9991
2 26871   9.1889  49.3736 0006273 295.5949 173.5882  0.99136993 74457
EWS-G1 (GOES 13) [+]    
1 29155U 06018A   21348.86972845  .00000051  00000+0  00000+0 0  9998
2 29155   0.3175 102.3347 0006907 136.7491 219.2043  1.00273469 26880
GOES 14 [B]             
1 35491U 09033A   21348.69302414 -.00000079  00000+0  00000+0 0  9999
2 35491   0.1562 288.9021 0015511 295.4256   4.3989  1.00271209 45615
GOES 15 [B]             
1 36411U 10008A   21348.76009503  .00000065  00000+0  00000+0 0  9991
2 36411   0.1818 276.0737 0001531  24.1069 289.3317  1.00282555 43175
GOES 16 [+]             
1 41866U 16071A   21349.41661933 -.00000232  00000+0  00000+0 0  9998
2 41866   0.0644 250.4696 0000507  38.0577 230.5286  1.00268420 18610
GOES 17 [+]             
1 43226U 18022A   21348.68656998  .00000111  00000+0  00000+0 0  9996
2 43226   0.0486 242.3216 0000639  22.9077 288.2998  1.00272943 13921
